start=new Date('2022-02-28T00:00:00.000Z').valueOf();
sats=[{"PERIOD":"93.402","ECCENTRICITY":"0.00017800","CENTER_NAME":"EARTH","TLE_LINE1":"1 50839U 22001AN  22058.91667824 -.00659101  00000-0 -16514-1 0  9992","MEAN_ANOMALY":"155.9176","GP_ID":"197288328","SEMIMAJOR_AXIS":"6819.181","REV_AT_EPOCH":"368","ELEMENT_SET_NO":"999","SITE":"AFETR","RCS_SIZE":"LARGE","MEAN_MOTION":"15.41716065","OBJECT_NAME":"STARLINK-3320","EPHEMERIS_TYPE":"0","TIME_SYSTEM":"UTC","CLASSIFICATION_TYPE":"U","COUNTRY_CODE":"US","NORAD_CAT_ID":"50839","MEAN_ELEMENT_THEORY":"SGP4","REF_FRAME":"TEME","RA_OF_ASC_NODE":"304.4447","TLE_LINE2":"2 50839  53.2173 304.4447 0001780  43.5212 155.9176 15.41716065  3684","PERIAPSIS":"439.833","OBJECT_TYPE":"PAYLOAD","LAUNCH_DATE":"2022-01-06","ARG_OF_PERICENTER":"43.5212","MEAN_MOTION_DOT":"-0.00659101","FILE":"3331200","DECAY_DATE":null,"INCLINATION":"53.2173","EPOCH":"2022-02-27T22:00:00.999936","OBJECT_ID":"2022-001AN","BSTAR":"-0.01651400000000","MEAN_MOTION_DDOT":"0.0000000000000","APOAPSIS":"442.260"},{"REV_AT_EPOCH":"368","GP_ID":"197287577","SEMIMAJOR_AXIS":"6818.837","ELEMENT_SET_NO":"999","PERIOD":"93.395","TLE_LINE1":"1 50840U 22001AP  22058.91667824 -.00658934  00000-0 -16444-1 0  9999","ECCENTRICITY":"0.00020200","CENTER_NAME":"EARTH","MEAN_ANOMALY":"174.4971","TIME_SYSTEM":"UTC","CLASSIFICATION_TYPE":"U","COUNTRY_CODE":"US","SITE":"AFETR","MEAN_MOTION":"15.41832936","OBJECT_NAME":"STARLINK-3295","RCS_SIZE":"LARGE","EPHEMERIS_TYPE":"0","PERIAPSIS":"439.324","OBJECT_TYPE":"PAYLOAD","NORAD_CAT_ID":"50840","MEAN_ELEMENT_THEORY":"SGP4","REF_FRAME":"TEME","RA_OF_ASC_NODE":"304.4443","TLE_LINE2":"2 50840  53.2173 304.4443 0002020  35.0348 174.4971 15.41832936  3681","OBJECT_ID":"2022-001AP","EPOCH":"2022-02-27T22:00:00.999936","BSTAR":"-0.01644400000000","MEAN_MOTION_DDOT":"0.0000000000000","APOAPSIS":"442.079","MEAN_MOTION_DOT":"-0.00658934","LAUNCH_DATE":"2022-01-06","ARG_OF_PERICENTER":"35.0348","FILE":"3331200","INCLINATION":"53.2173","DECAY_DATE":null},{"ELEMENT_SET_NO":"999","SEMIMAJOR_AXIS":"6819.870","GP_ID":"197287827","REV_AT_EPOCH":"368","ECCENTRICITY":"0.00020340","CENTER_NAME":"EARTH","TLE_LINE1":"1 50841U 22001AQ  22058.91667824 -.00659621  00000-0 -16657-1 0  9990","MEAN_ANOMALY":"145.7515","PERIOD":"93.417","CLASSIFICATION_TYPE":"U","COUNTRY_CODE":"US","TIME_SYSTEM":"UTC","EPHEMERIS_TYPE":"0","SITE":"AFETR","RCS_SIZE":"LARGE","MEAN_MOTION":"15.41482468","OBJECT_NAME":"STARLINK-3300","PERIAPSIS":"440.348","OBJECT_TYPE":"PAYLOAD","REF_FRAME":"TEME","RA_OF_ASC_NODE":"304.4453","TLE_LINE2":"2 50841  53.2172 304.4453 0002034  33.3959 145.7515 15.41482468  3682","NORAD_CAT_ID":"50841","MEAN_ELEMENT_THEORY":"SGP4","MEAN_MOTION_DDOT":"0.0000000000000","APOAPSIS":"443.122","EPOCH":"2022-02-27T22:00:00.999936","OBJECT_ID":"2022-001AQ","BSTAR":"-0.01665700000000","FILE":"3331200","DECAY_DATE":null,"INCLINATION":"53.2172","ARG_OF_PERICENTER":"33.3959","LAUNCH_DATE":"2022-01-06","MEAN_MOTION_DOT":"-0.00659621"},{"APOAPSIS":"441.749","MEAN_MOTION_DDOT":"0.0000000000000","BSTAR":"-0.01638100000000","EPOCH":"2022-02-27T22:00:00.999936","OBJECT_ID":"2022-001AR","INCLINATION":"53.2174","DECAY_DATE":null,"FILE":"3331200","MEAN_MOTION_DOT":"-0.00658993","ARG_OF_PERICENTER":"34.1993","LAUNCH_DATE":"2022-01-06","OBJECT_TYPE":"PAYLOAD","PERIAPSIS":"438.965","TLE_LINE2":"2 50842  53.2174 304.4438 0002042  34.1993 185.3903 15.41949879  3689","RA_OF_ASC_NODE":"304.4438","REF_FRAME":"TEME","MEAN_ELEMENT_THEORY":"SGP4","NORAD_CAT_ID":"50842","COUNTRY_CODE":"US","CLASSIFICATION_TYPE":"U","TIME_SYSTEM":"UTC","EPHEMERIS_TYPE":"0","MEAN_MOTION":"15.41949879","OBJECT_NAME":"STARLINK-3302","RCS_SIZE":"LARGE","SITE":"AFETR","ELEMENT_SET_NO":"999","REV_AT_EPOCH":"368","GP_ID":"197288078","SEMIMAJOR_AXIS":"6818.492","MEAN_ANOMALY":"185.3903","TLE_LINE1":"1 50842U 22001AR  22058.91667824 -.00658993  00000-0 -16381-1 0  9996","CENTER_NAME":"EARTH","ECCENTRICITY":"0.00020420","PERIOD":"93.388"},{"COUNTRY_CODE":"US","CLASSIFICATION_TYPE":"U","TIME_SYSTEM":"UTC","EPHEMERIS_TYPE":"0","MEAN_MOTION":"15.41248943","OBJECT_NAME":"STARLINK-3325","RCS_SIZE":"LARGE","SITE":"AFETR","ELEMENT_SET_NO":"999","REV_AT_EPOCH":"368","SEMIMAJOR_AXIS":"6820.559","GP_ID":"197288829","MEAN_ANOMALY":"124.7539","TLE_LINE1":"1 50843U 22001AS  22058.91667824 -.00660211  00000-0 -16804-1 0  9993","ECCENTRICITY":"0.00019940","CENTER_NAME":"EARTH","PERIOD":"93.431","APOAPSIS":"443.784","MEAN_MOTION_DDOT":"0.0000000000000","BSTAR":"-0.01680400000000","EPOCH":"2022-02-27T22:00:00.999936","OBJECT_ID":"2022-001AS","INCLINATION":"53.2172","DECAY_DATE":null,"FILE":"3331200","MEAN_MOTION_DOT":"-0.00660211","ARG_OF_PERICENTER":"33.9614","LAUNCH_DATE":"2022-01-06","OBJECT_TYPE":"PAYLOAD","PERIAPSIS":"441.064","TLE_LINE2":"2 50843  53.2172 304.4457 0001994  33.9614 124.7539 15.41248943  3687","RA_OF_ASC_NODE":"304.4457","REF_FRAME":"TEME","MEAN_ELEMENT_THEORY":"SGP4","NORAD_CAT_ID":"50843"},{"ELEMENT_SET_NO":"999","GP_ID":"197287077","SEMIMAJOR_AXIS":"6817.458","REV_AT_EPOCH":"368","CENTER_NAME":"EARTH","ECCENTRICITY":"0.00017720","TLE_LINE1":"1 50844U 22001AT  22058.91667824 -.00659158  00000-0 -16194-1 0  9994","MEAN_ANOMALY":"207.2393","PERIOD":"93.367","CLASSIFICATION_TYPE":"U","COUNTRY_CODE":"US","TIME_SYSTEM":"UTC","EPHEMERIS_TYPE":"0","SITE":"AFETR","RCS_SIZE":"LARGE","OBJECT_NAME":"STARLINK-3326","MEAN_MOTION":"15.42300863","PERIAPSIS":"438.114","OBJECT_TYPE":"PAYLOAD","RA_OF_ASC_NODE":"304.4419","REF_FRAME":"TEME","TLE_LINE2":"2 50844  53.2175 304.4419 0001772  42.3130 207.2393 15.42300863  3686","NORAD_CAT_ID":"50844","MEAN_ELEMENT_THEORY":"SGP4","MEAN_MOTION_DDOT":"0.0000000000000","APOAPSIS":"440.531","EPOCH":"2022-02-27T22:00:00.999936","OBJECT_ID":"2022-001AT","BSTAR":"-0.01619400000000","FILE":"3331200","DECAY_DATE":null,"INCLINATION":"53.2175","LAUNCH_DATE":"2022-01-06","ARG_OF_PERICENTER":"42.3130","MEAN_MOTION_DOT":"-0.00659158"},{"FILE":"3331200","INCLINATION":"53.2176","DECAY_DATE":null,"MEAN_MOTION_DOT":"-0.00660447","LAUNCH_DATE":"2022-01-06","ARG_OF_PERICENTER":"73.4597","MEAN_MOTION_DDOT":"0.0000000000000","APOAPSIS":"437.908","EPOCH":"2022-02-27T22:00:00.999936","OBJECT_ID":"2022-001AU","BSTAR":"-0.01581200000000","REF_FRAME":"TEME","RA_OF_ASC_NODE":"304.4483","TLE_LINE2":"2 50845  53.2176 304.4483 0001261  73.4597 228.9613 15.43072735  3684","NORAD_CAT_ID":"50845","MEAN_ELEMENT_THEORY":"SGP4","PERIAPSIS":"436.189","OBJECT_TYPE":"PAYLOAD","EPHEMERIS_TYPE":"0","SITE":"AFETR","OBJECT_NAME":"STARLINK-3230","MEAN_MOTION":"15.43072735","RCS_SIZE":"LARGE","CLASSIFICATION_TYPE":"U","COUNTRY_CODE":"US","TIME_SYSTEM":"UTC","TLE_LINE1":"1 50845U 22001AU  22058.91667824 -.00660447  00000-0 -15812-1 0  9994","CENTER_NAME":"EARTH","ECCENTRICITY":"0.00012610","MEAN_ANOMALY":"228.9613","PERIOD":"93.320","ELEMENT_SET_NO":"999","REV_AT_EPOCH":"368","SEMIMAJOR_AXIS":"6815.184","GP_ID":"197287327"},{"BSTAR":"-0.01613700000000","EPOCH":"2022-02-27T22:00:00.999936","OBJECT_ID":"2022-001AV","APOAPSIS":"440.196","MEAN_MOTION_DDOT":"0.0000000000000","ARG_OF_PERICENTER":"40.2083","LAUNCH_DATE":"2022-01-06","MEAN_MOTION_DOT":"-0.00659420","DECAY_DATE":null,"INCLINATION":"53.2175","FILE":"3331200","OBJECT_TYPE":"PAYLOAD","PERIAPSIS":"437.758","MEAN_ELEMENT_THEORY":"SGP4","NORAD_CAT_ID":"50846","TLE_LINE2":"2 50846  53.2175 304.4412 0001788  40.2083 219.2612 15.42418003  3685","REF_FRAME":"TEME","RA_OF_ASC_NODE":"304.4412","TIME_SYSTEM":"UTC","COUNTRY_CODE":"US","CLASSIFICATION_TYPE":"U","RCS_SIZE":"LARGE","OBJECT_NAME":"STARLINK-3308","MEAN_MOTION":"15.42418003","SITE":"AFETR","EPHEMERIS_TYPE":"0","GP_ID":"197288579","SEMIMAJOR_AXIS":"6817.112","REV_AT_EPOCH":"368","ELEMENT_SET_NO":"999","PERIOD":"93.360","MEAN_ANOMALY":"219.2612","ECCENTRICITY":"0.00017880","CENTER_NAME":"EARTH","TLE_LINE1":"1 50846U 22001AV  22058.91667824 -.00659420  00000-0 -16137-1 0  9995"},{"MEAN_ANOMALY":"150.2004","CENTER_NAME":"EARTH","ECCENTRICITY":"0.00018740","TLE_LINE1":"1 50847U 22001AW  22058.91667824 -.00659342  00000-0 -16585-1 0  9996","PERIOD":"93.409","ELEMENT_SET_NO":"999","SEMIMAJOR_AXIS":"6819.526","GP_ID":"197288329","REV_AT_EPOCH":"368","EPHEMERIS_TYPE":"0","RCS_SIZE":"LARGE","OBJECT_NAME":"STARLINK-3319","MEAN_MOTION":"15.41599270","SITE":"AFETR","COUNTRY_CODE":"US","CLASSIFICATION_TYPE":"U","TIME_SYSTEM":"UTC","TLE_LINE2":"2 50847  53.2173 304.4450 0001874  39.1102 150.2004 15.41599270  3685","RA_OF_ASC_NODE":"304.4450","REF_FRAME":"TEME","MEAN_ELEMENT_THEORY":"SGP4","NORAD_CAT_ID":"50847","OBJECT_TYPE":"PAYLOAD","PERIAPSIS":"440.113","DECAY_DATE":null,"INCLINATION":"53.2173","FILE":"3331200","ARG_OF_PERICENTER":"39.1102","LAUNCH_DATE":"2022-01-06","MEAN_MOTION_DOT":"-0.00659342","APOAPSIS":"442.669","MEAN_MOTION_DDOT":"0.0000000000000","BSTAR":"-0.01658500000000","EPOCH":"2022-02-27T22:00:00.999936","OBJECT_ID":"2022-001AW"},{"NORAD_CAT_ID":"50848","MEAN_ELEMENT_THEORY":"SGP4","REF_FRAME":"TEME","RA_OF_ASC_NODE":"304.4403","TLE_LINE2":"2 50848  53.2175 304.4403 0001738  42.0332 227.3183 15.42535099  3687","PERIAPSIS":"437.448","OBJECT_TYPE":"PAYLOAD","MEAN_MOTION_DOT":"-0.00659666","LAUNCH_DATE":"2022-01-06","ARG_OF_PERICENTER":"42.0332","FILE":"3331200","INCLINATION":"53.2175","DECAY_DATE":null,"OBJECT_ID":"2022-001AX","EPOCH":"2022-02-27T22:00:00.999936","BSTAR":"-0.01608000000000","MEAN_MOTION_DDOT":"0.0000000000000","APOAPSIS":"439.817","PERIOD":"93.353","TLE_LINE1":"1 50848U 22001AX  22058.91667824 -.00659666  00000-0 -16080-1 0  9996","ECCENTRICITY":"0.00017380","CENTER_NAME":"EARTH","MEAN_ANOMALY":"227.3183","REV_AT_EPOCH":"368","SEMIMAJOR_AXIS":"6816.767","GP_ID":"197287578","ELEMENT_SET_NO":"999","SITE":"AFETR","MEAN_MOTION":"15.42535099","OBJECT_NAME":"STARLINK-3315","RCS_SIZE":"LARGE","EPHEMERIS_TYPE":"0","TIME_SYSTEM":"UTC","CLASSIFICATION_TYPE":"U","COUNTRY_CODE":"US"}];
